IRIDIUM 155             
1 43573U 18061E   20224.77582202  .00000059  00000-0  13828-4 0  9991
2 43573  86.3956 229.0686 0002725  98.3013 261.8492 14.34216773107282
IRIDIUM 154             
1 43574U 18061F   20225.17540378  .00000067  00000-0  16729-4 0  9997
2 43574  86.3960 228.9339 0001973  87.9665 272.1757 14.34218329107392
IRIDIUM 163             
1 43575U 18061G   20224.73776347  .00000062  00000-0  15248-4 0  9996
2 43575  86.3957 229.0970 0002477  75.2811 284.8659 14.34218933107308
IRIDIUM 156             
1 43576U 18061H   20224.71238447  .00000055  00000-0  12512-4 0  9992
2 43576  86.3957 229.1123 0002629  86.5874 273.5622 14.34219391107295
IRIDIUM 164             
1 43577U 18061J   20225.46082256  .00000068  00000-0  17162-4 0  9991
2 43577  86.3958 228.8074 0002087  84.9427 275.2007 14.34218002107443
IRIDIUM 159             
1 43578U 18061K   20225.08026416  .00000059  00000-0  13879-4 0  9997
2 43578  86.3957 228.9481 0002086  87.4299 272.7136 14.34218712107353
IRIDIUM 180             
1 43922U 19002A   20224.87045589  .00000069  00000-0  17708-4 0  9990
2 43922  86.4022 165.9600 0001594  55.4252 304.7093 14.34217497 82933
IRIDIUM 176             
1 43923U 19002B   20225.42927271  .00000114  00000-0  14118-4 0  9993
2 43923  86.6156 165.7545 0002279  82.4514 277.6962 14.72257559 85168
IRIDIUM 168             
1 43924U 19002C   20224.86411597  .00000064  00000-0  15622-4 0  9995
2 43924  86.4023 165.9793 0001966  81.7690 278.3729 14.34216863 82916
IRIDIUM 173             
1 43925U 19002D   20224.85142722  .00000064  00000-0  15733-4 0  9999
2 43925  86.4020 165.9604 0002087  80.7446 279.3985 14.34218976 82909
IRIDIUM 169             
1 43926U 19002E   20224.89009291  .00000089  00000-0  22700-4 0  9996
2 43926  86.4259 197.4852 0005901 146.6921 213.4649 14.38611847 83238
IRIDIUM 172             
1 43927U 19002F   20224.91485451  .00000069  00000-0  17468-4 0  9999
2 43927  86.4021 165.9352 0001998  79.1576 280.9845 14.34218619 82916
IRIDIUM 175             
1 43928U 19002G   20225.35512419  .00000117  00000-0  14658-4 0  9996
2 43928  86.6141 165.6664 0003281  81.6393 278.5196 14.72257673 85142
IRIDIUM 171             
1 43929U 19002H   20225.38421360  .00000062  00000-0  15006-4 0  9991
2 43929  86.4032 165.8085 0001954  82.5660 277.5758 14.34216116 82977
IRIDIUM 170             
1 43930U 19002J   20225.09561430  .00000122  00000-0  15367-4 0  9991
2 43930  86.6157 165.9007 0002508  78.6834 281.4665 14.72249554 85124
IRIDIUM 167             
1 43931U 19002K   20225.44764314  .00000066  00000-0  16344-4 0  9990
2 43931  86.4022 165.7165 0001526  64.5134 295.6219 14.34216533 82985
